OBJECT_NAME,OBJECT_ID,EPOCH,MEAN_MOTION,ECCENTRICITY,INCLINATION,RA_OF_ASC_NODE,ARG_OF_PERICENTER,MEAN_ANOMALY,EPHEMERIS_TYPE,CLASSIFICATION_TYPE,NORAD_CAT_ID,ELEMENT_SET_NO,REV_AT_EPOCH,BSTAR,MEAN_MOTION_DOT,MEAN_MOTION_DDOT
IRIDIUM 154,2018-061F,2026-06-18T03:19:34.350528,14.34216711,.00021233,86.3960,56.4089,87.4810,272.6629,0,U,43574,999,41354,.3737887E-4,.124E-5,0
IRIDIUM 163,2018-061G,2026-06-18T02:52:10.304544,14.34216412,.00022358,86.3959,56.3323,83.3316,276.8135,0,U,43575,999,41351,.6693262E-5,.39E-6,0
IRIDIUM 156,2018-061H,2026-06-17T17:53:18.578688,14.34216794,.00021084,86.3963,56.4961,83.1935,276.9500,0,U,43576,999,41345,.67118008E-4,.208E-5,0
IRIDIUM 164,2018-061J,2026-06-18T01:48:14.432256,14.34217293,.00021597,86.3959,56.3984,88.9218,271.2225,0,U,43577,999,41354,.46522153E-4,.15E-5,0
IRIDIUM 159,2018-061K,2026-06-18T02:43:02.538048,14.34217507,.00022689,86.3960,56.3194,83.6656,276.4799,0,U,43578,999,41351,.460859E-5,.33E-6,0
IRIDIUM 180,2019-002A,2026-06-18T01:01:50.890368,14.34217375,.00022526,86.3970,353.2396,89.1614,270.9840,0,U,43922,999,38911,.38375233E-4,.127E-5,0
IRIDIUM 176,2019-002B,2026-06-18T01:01:12.492480,14.72268096,.00022984,86.6091,353.1832,92.9953,267.1527,0,U,43923,999,39937,.94010033E-4,.618E-5,0
IRIDIUM 168,2019-002C,2026-06-18T00:52:42.652128,14.34219162,.00022007,86.3974,353.3196,89.7416,270.4032,0,U,43924,999,38909,.36630078E-4,.122E-5,0
IRIDIUM 173,2019-002D,2026-06-18T00:34:26.920416,14.34217079,.00021782,86.3969,353.2138,87.3591,272.7854,0,U,43925,999,38907,.55672313E-4,.176E-5,0
IRIDIUM 169,2019-002E,2026-06-18T07:05:38.096448,14.38609452,.0001813,86.4223,24.7299,73.4393,286.7004,0,U,43926,999,39038,.64853157E-4,.218E-5,0
IRIDIUM 172,2019-002F,2026-06-18T00:25:18.711552,14.34218865,.00022538,86.3970,353.2244,88.7155,271.4299,0,U,43927,999,38908,.48019531E-4,.154E-5,0
IRIDIUM 175,2019-002G,2026-06-18T07:34:24.989664,14.43613239,.00026448,86.4514,290.0491,175.5177,184.6048,0,U,43928,999,39914,.72827706E-4,.267E-5,0
IRIDIUM 171,2019-002H,2026-06-18T01:38:22.892928,14.34217406,.0001936,86.3975,353.5094,91.1894,268.9523,0,U,43929,999,38908,-.18761176E-4,-.33E-6,0
IRIDIUM 170,2019-002J,2026-06-18T01:10:06.463488,14.72268543,.00023566,86.6091,353.1830,89.3305,270.8182,0,U,43930,999,39938,.92772602E-4,.61E-5,0
IRIDIUM 167,2019-002K,2026-06-18T01:29:14.866368,14.34217556,.000177,86.3967,353.2282,92.4663,267.6735,0,U,43931,999,38908,-.2985862E-5,.11E-6,0
IRIDIUM 181,2023-068S,2026-06-18T01:50:58.174944,14.43312952,.00023576,86.4498,56.4186,88.4368,271.7103,0,U,56726,999,16256,.76971482E-4,.279E-5,0
IRIDIUM 177,2023-068T,2026-06-17T22:20:37.966272,14.80225589,.00023719,86.1965,328.4382,88.8660,271.2833,0,U,56727,999,16647,.62962996E-4,.505E-5,0
IRIDIUM 174,2023-068U,2026-06-18T00:52:20.757504,14.72264970,.00024487,86.6098,353.3357,84.0720,276.0776,0,U,56728,999,16614,.96901092E-4,.636E-5,0
IRIDIUM 178,2023-068V,2026-06-18T02:57:01.024128,14.80235252,.00026247,86.6536,24.9691,85.6325,274.5197,0,U,56729,999,16650,.98968686E-4,.778E-5,0
IRIDIUM 179,2023-068W,2026-06-18T02:49:14.703456,14.80232457,.00024651,86.6774,33.9542,88.3996,271.7508,0,U,56730,999,16650,.91908835E-4,.725E-5,0
