IRIDIUM 154             
1 43574U 18061F   26169.13859202  .00000124  00000+0  37379-4 0  9992
2 43574  86.3960  56.4089 0002123  87.4810 272.6629 14.34216711413546
IRIDIUM 163             
1 43575U 18061G   26169.11956371  .00000039  00000+0  66933-5 0  9990
2 43575  86.3959  56.3323 0002235  83.3316 276.8135 14.34216412413518
IRIDIUM 156             
1 43576U 18061H   26168.74535392  .00000208  00000+0  67118-4 0  9998
2 43576  86.3963  56.4961 0002108  83.1935 276.9500 14.34216794413450
IRIDIUM 164             
1 43577U 18061J   26169.07516704  .00000150  00000+0  46522-4 0  9994
2 43577  86.3959  56.3984 0002159  88.9218 271.2225 14.34217293413540
IRIDIUM 159             
1 43578U 18061K   26169.11322382  .00000033  00000+0  46086-5 0  9993
2 43578  86.3960  56.3194 0002268  83.6656 276.4799 14.34217507413513
IRIDIUM 180             
1 43922U 19002A   26169.04295012  .00000127  00000+0  38375-4 0  9998
2 43922  86.3970 353.2396 0002252  89.1614 270.9840 14.34217375389115
IRIDIUM 176             
1 43923U 19002B   26169.04250570  .00000618  00000+0  94010-4 0  9992
2 43923  86.6091 353.1832 0002298  92.9953 267.1527 14.72268096399372
IRIDIUM 168             
1 43924U 19002C   26169.03660477  .00000122  00000+0  36630-4 0  9997
2 43924  86.3974 353.3196 0002200  89.7416 270.4032 14.34219162389090
IRIDIUM 173             
1 43925U 19002D   26169.02392269  .00000176  00000+0  55672-4 0  9994
2 43925  86.3969 353.2138 0002178  87.3591 272.7854 14.34217079389072
IRIDIUM 169             
1 43926U 19002E   26169.29557982  .00000218  00000+0  64853-4 0  9997
2 43926  86.4223  24.7299 0001813  73.4393 286.7004 14.38609452390388
IRIDIUM 172             
1 43927U 19002F   26169.01757768  .00000154  00000+0  48020-4 0  9999
2 43927  86.3970 353.2244 0002253  88.7155 271.4299 14.34218865389083
IRIDIUM 175             
1 43928U 19002G   26169.31556701  .00000267  00000+0  72828-4 0  9995
2 43928  86.4514 290.0491 0002644 175.5177 184.6048 14.43613239399143
IRIDIUM 171             
1 43929U 19002H   26169.06832052 -.00000033  00000+0 -18761-4 0  9993
2 43929  86.3975 353.5094 0001936  91.1894 268.9523 14.34217406389082
IRIDIUM 170             
1 43930U 19002J   26169.04868592  .00000610  00000+0  92773-4 0  9995
2 43930  86.6091 353.1830 0002356  89.3305 270.8182 14.72268543399380
IRIDIUM 167             
1 43931U 19002K   26169.06197762  .00000011  00000+0 -29859-5 0  9994
2 43931  86.3967 353.2282 0001770  92.4663 267.6735 14.34217556389083
IRIDIUM 181             
1 56726U 23068S   26169.07706221  .00000279  00000+0  76971-4 0  9995
2 56726  86.4498  56.4186 0002357  88.4368 271.7103 14.43312952162566
IRIDIUM 177             
1 56727U 23068T   26168.93099498  .00000505  00000+0  62963-4 0  9999
2 56727  86.1965 328.4382 0002371  88.8660 271.2833 14.80225589166477
IRIDIUM 174             
1 56728U 23068U   26169.03635136  .00000636  00000+0  96901-4 0  9991
2 56728  86.6098 353.3357 0002448  84.0720 276.0776 14.72264970166140
IRIDIUM 178             
1 56729U 23068V   26169.12292852  .00000778  00000+0  98969-4 0  9999
2 56729  86.6536  24.9691 0002624  85.6325 274.5197 14.80235252166504
IRIDIUM 179             
1 56730U 23068W   26169.11753129  .00000725  00000+0  91909-4 0  9998
2 56730  86.6774  33.9542 0002465  88.3996 271.7508 14.80232457166501
